GLOBALSTAR M059         
1 25944U 99058B   25364.52877883 -.00000055  00000+0  38502-3 0  9994
2 25944  52.0037  36.0001 0000184  77.7568  89.0614 11.99988582597612
GLOBALSTAR M056         
1 25945U 99058C   25364.37462446 -.00000028  00000+0  69906-3 0  9995
2 25945  51.9978  33.3480 0001040 199.1828 173.9852 12.04781484186278
GLOBALSTAR M031         
1 25946U 99058D   25351.65166691 -.00000043  00000+0  48267-3 0  9990
2 25946  51.9983 309.4344 0000939 181.2254 351.7896 12.16044933186865
GLOBALSTAR M039         
1 25961U 99062A   25364.53090440 -.00000062  00000+0  23324-3 0  9999
2 25961  51.9861  30.6838 0002778  68.6254 291.4909 12.62340373205011
GLOBALSTAR M034         
1 25962U 99062B   25364.82267830 -.00000009  00000+0  11460-2 0  9999
2 25962  51.9842 220.2471 0015340  54.7929  28.1430 11.79455188161591
GLOBALSTAR M061         
1 25964U 99062D   25364.52509418 -.00000078  00000+0  28748-4 0  9994
2 25964  51.9813  47.6604 0005540 334.7255 174.2696 11.76777655144292
